{
  "type": "FeatureCollection",
  "features": [
    {
      "type": "Feature",
      "properties": {
        "norad_id": 15362,
        "name": "NOVA 3",
        "group": "nnss",
        "lat": 61.715433156322874,
        "lon": 80.23778552463509,
        "alt_km": 1160.385166289513,
        "timestamp": "2025-12-06T20:37:56.340305+00:00",
        "meta_object_name": "NOVA 3",
        "meta_object_id": "1984-110A",
        "meta_epoch": "2025-12-06T13:06:57.028896",
        "meta_mean_motion": 13.2304336,
        "meta_eccentricity": 0.00310046,
        "meta_inclination": 90.1224,
        "meta_ra_of_asc_node": 80.4617,
        "meta_arg_of_pericenter": 349.3419,
        "meta_mean_anomaly": 21.2531,
        "meta_ephemeris_type": 0,
        "meta_classification_type": "U",
        "meta_norad_cat_id": 15362,
        "meta_element_set_no": 999,
        "meta_rev_at_epoch": 98617,
        "meta_bstar": 0.00026353353,
        "meta_mean_motion_dot": 1.19e-06,
        "meta_mean_motion_ddot": 0,
        "tle_line1": "1 15362U 84110A   25340.54649339  .00000119  00000+0  26353-3 0  9990",
        "tle_line2": "2 15362  90.1224  80.4617 0031004 349.3419  21.2531 13.23043360986174"
      },
      "geometry": {
        "type": "Point",
        "coordinates": [
          80.23778552463509,
          61.715433156322874
        ]
      }
    },
    {
      "type": "Feature",
      "properties": {
        "norad_id": 15935,
        "name": "OSCAR 30",
        "group": "nnss",
        "lat": -48.309693856554446,
        "lon": -80.43417301420183,
        "alt_km": 1207.5760083641435,
        "timestamp": "2025-12-06T20:37:56.340316+00:00",
        "meta_object_name": "OSCAR 30",
        "meta_object_id": "1985-066A",
        "meta_epoch": "2025-12-06T14:10:20.038080",
        "meta_mean_motion": 13.36076677,
        "meta_eccentricity": 0.01693779,
        "meta_inclination": 90.1648,
        "meta_ra_of_asc_node": 99.7466,
        "meta_arg_of_pericenter": 101.0656,
        "meta_mean_anomaly": 271.7047,
        "meta_ephemeris_type": 0,
        "meta_classification_type": "U",
        "meta_norad_cat_id": 15935,
        "meta_element_set_no": 999,
        "meta_rev_at_epoch": 96371,
        "meta_bstar": 0.00024509031,
        "meta_mean_motion_dot": 1.47e-06,
        "meta_mean_motion_ddot": 0,
        "tle_line1": "1 15935U 85066A   25340.59050970  .00000147  00000+0  24509-3 0  9991",
        "tle_line2": "2 15935  90.1648  99.7466 0169377 101.0656 271.7047 13.36076677963716"
      },
      "geometry": {
        "type": "Point",
        "coordinates": [
          -80.43417301420183,
          -48.309693856554446
        ]
      }
    },
    {
      "type": "Feature",
      "properties": {
        "norad_id": 15936,
        "name": "OSCAR 24",
        "group": "nnss",
        "lat": -55.63116299584933,
        "lon": 92.46292228562484,
        "alt_km": 1253.181891446703,
        "timestamp": "2025-12-06T20:37:56.340328+00:00",
        "meta_object_name": "OSCAR 24",
        "meta_object_id": "1985-066B",
        "meta_epoch": "2025-12-06T06:40:45.007680",
        "meta_mean_motion": 13.35934359,
        "meta_eccentricity": 0.01703914,
        "meta_inclination": 90.1788,
        "meta_ra_of_asc_node": 92.1911,
        "meta_arg_of_pericenter": 108.3753,
        "meta_mean_anomaly": 282.2306,
        "meta_ephemeris_type": 0,
        "meta_classification_type": "U",
        "meta_norad_cat_id": 15936,
        "meta_element_set_no": 999,
        "meta_rev_at_epoch": 96557,
        "meta_bstar": 0.00024653627,
        "meta_mean_motion_dot": 1.47e-06,
        "meta_mean_motion_ddot": 0,
        "tle_line1": "1 15936U 85066B   25340.27829870  .00000147  00000+0  24654-3 0  9991",
        "tle_line2": "2 15936  90.1788  92.1911 0170391 108.3753 282.2306 13.35934359965570"
      },
      "geometry": {
        "type": "Point",
        "coordinates": [
          92.46292228562484,
          -55.63116299584933
        ]
      }
    },
    {
      "type": "Feature",
      "properties": {
        "norad_id": 17070,
        "name": "POLAR BEAR",
        "group": "nnss",
        "lat": 29.45643753916861,
        "lon": -175.77520076929574,
        "alt_km": 987.8726198044396,
        "timestamp": "2025-12-06T20:37:56.340339+00:00",
        "meta_object_name": "POLAR BEAR",
        "meta_object_id": "1986-088A",
        "meta_epoch": "2025-12-06T15:35:55.464000",
        "meta_mean_motion": 13.75249012,
        "meta_eccentricity": 0.00405694,
        "meta_inclination": 89.6179,
        "meta_ra_of_asc_node": 184.0173,
        "meta_arg_of_pericenter": 136.9422,
        "meta_mean_anomaly": 295.3265,
        "meta_ephemeris_type": 0,
        "meta_classification_type": "U",
        "meta_norad_cat_id": 17070,
        "meta_element_set_no": 999,
        "meta_rev_at_epoch": 95895,
        "meta_bstar": 0.00017232039,
        "meta_mean_motion_dot": 1.78e-06,
        "meta_mean_motion_ddot": 0,
        "tle_line1": "1 17070U 86088A   25340.64994750  .00000178  00000+0  17232-3 0  9996",
        "tle_line2": "2 17070  89.6179 184.0173 0040569 136.9422 295.3265 13.75249012958954"
      },
      "geometry": {
        "type": "Point",
        "coordinates": [
          -175.77520076929574,
          29.45643753916861
        ]
      }
    },
    {
      "type": "Feature",
      "properties": {
        "norad_id": 18361,
        "name": "OSCAR 27",
        "group": "nnss",
        "lat": -28.351974222256466,
        "lon": -101.14969699354312,
        "alt_km": 1032.1704197021281,
        "timestamp": "2025-12-06T20:37:56.340352+00:00",
        "meta_object_name": "OSCAR 27",
        "meta_object_id": "1987-080A",
        "meta_epoch": "2025-12-06T12:26:58.014528",
        "meta_mean_motion": 13.44904721,
        "meta_eccentricity": 0.01025257,
        "meta_inclination": 90.3742,
        "meta_ra_of_asc_node": 79.0396,
        "meta_arg_of_pericenter": 241.8541,
        "meta_mean_anomaly": 117.2218,
        "meta_ephemeris_type": 0,
        "meta_classification_type": "U",
        "meta_norad_cat_id": 18361,
        "meta_element_set_no": 999,
        "meta_rev_at_epoch": 87473,
        "meta_bstar": 0.00029954433,
        "meta_mean_motion_dot": 1.89e-06,
        "meta_mean_motion_ddot": 0,
        "tle_line1": "1 18361U 87080A   25340.51872702  .00000189  00000+0  29954-3 0  9997",
        "tle_line2": "2 18361  90.3742  79.0396 0102525 241.8541 117.2218 13.44904721874736"
      },
      "geometry": {
        "type": "Point",
        "coordinates": [
          -101.14969699354312,
          -28.351974222256466
        ]
      }
    },
    {
      "type": "Feature",
      "properties": {
        "norad_id": 18362,
        "name": "OSCAR 29",
        "group": "nnss",
        "lat": -50.170614891887,
        "lon": -100.93970983581367,
        "alt_km": 1035.356576979273,
        "timestamp": "2025-12-06T20:37:56.340367+00:00",
        "meta_object_name": "OSCAR 29",
        "meta_object_id": "1987-080B",
        "meta_epoch": "2025-12-06T12:23:38.473728",
        "meta_mean_motion": 13.44446662,
        "meta_eccentricity": 0.01037305,
        "meta_inclination": 90.3754,
        "meta_ra_of_asc_node": 79.4978,
        "meta_arg_of_pericenter": 265.2723,
        "meta_mean_anomaly": 105.0743,
        "meta_ephemeris_type": 0,
        "meta_classification_type": "U",
        "meta_norad_cat_id": 18362,
        "meta_element_set_no": 999,
        "meta_rev_at_epoch": 87426,
        "meta_bstar": 0.00026793963,
        "meta_mean_motion_dot": 1.68e-06,
        "meta_mean_motion_ddot": 0,
        "tle_line1": "1 18362U 87080B   25340.51641752  .00000168  00000+0  26794-3 0  9993",
        "tle_line2": "2 18362  90.3754  79.4978 0103730 265.2723 105.0743 13.44446662874262"
      },
      "geometry": {
        "type": "Point",
        "coordinates": [
          -100.93970983581367,
          -50.170614891887
        ]
      }
    },
    {
      "type": "Feature",
      "properties": {
        "norad_id": 19070,
        "name": "OSCAR 23",
        "group": "nnss",
        "lat": -1.1276650689223717,
        "lon": 16.216675134866755,
        "alt_km": 1293.9232380895319,
        "timestamp": "2025-12-06T20:37:56.340378+00:00",
        "meta_object_name": "OSCAR 23",
        "meta_object_id": "1988-033A",
        "meta_epoch": "2025-12-06T15:50:30.811776",
        "meta_mean_motion": 13.2778583,
        "meta_eccentricity": 0.01890189,
        "meta_inclination": 90.3219,
        "meta_ra_of_asc_node": 16.2041,
        "meta_arg_of_pericenter": 196.8471,
        "meta_mean_anomaly": 287.9417,
        "meta_ephemeris_type": 0,
        "meta_classification_type": "U",
        "meta_norad_cat_id": 19070,
        "meta_element_set_no": 999,
        "meta_rev_at_epoch": 82172,
        "meta_bstar": 0.0002755695,
        "meta_mean_motion_dot": 1.45e-06,
        "meta_mean_motion_ddot": 0,
        "tle_line1": "1 19070U 88033A   25340.66007884  .00000145  00000+0  27557-3 0  9990",
        "tle_line2": "2 19070  90.3219  16.2041 0189018 196.8471 287.9417 13.27785830821722"
      },
      "geometry": {
        "type": "Point",
        "coordinates": [
          16.216675134866755,
          -1.1276650689223717
        ]
      }
    }
  ]
}